{
    "links": {
        "self": "http://www.neowsapp.com/rest/v1/neo/3701886?api_key=iIulBulltgU6a56xZRHN4H3l9WmuAYTsLGpBGhQ2"
    },
    "id": "3701886",
    "neo_reference_id": "3701886",
    "name": "(2014 XT7)",
    "designation": "2014 XT7",
    "nasa_jpl_url": "http://ssd.jpl.nasa.gov/sbdb.cgi?sstr=3701886",
    "absolute_magnitude_h": 26.0,
    "estimated_diameter": {
        "kilometers": {
            "estimated_diameter_min": 0.0167708462,
            "estimated_diameter_max": 0.0375007522
        },
        "meters": {
            "estimated_diameter_min": 16.7708462163,
            "estimated_diameter_max": 37.5007521798
        },
        "miles": {
            "estimated_diameter_min": 0.0104209175,
            "estimated_diameter_max": 0.0233018799
        },
        "feet": {
            "estimated_diameter_min": 55.0224631002,
            "estimated_diameter_max": 123.0339677816
        }
    },
    "is_potentially_hazardous_asteroid": false,
    "close_approach_data": [
        {
            "close_approach_date": "2014-12-20",
            "close_approach_date_full": "2014-Dec-20 04:25",
            "epoch_date_close_approach": 1419049500000,
            "relative_velocity": {
                "kilometers_per_second": "8.0591172651",
                "kilometers_per_hour": "29012.8221542241",
                "miles_per_hour": "18027.4394102177"
            },
            "miss_distance": {
                "astronomical": "0.0368230048",
                "lunar": "14.3241488672",
                "kilometers": "5508643.085079776",
                "miles": "3422912.0905258688"
            },
            "orbiting_body": "Earth"
        },
        {
            "close_approach_date": "2067-09-11",
            "close_approach_date_full": "2067-Sep-11 15:15",
            "epoch_date_close_approach": 3082979700000,
            "relative_velocity": {
                "kilometers_per_second": "9.4783539906",
                "kilometers_per_hour": "34122.0743663171",
                "miles_per_hour": "21202.1300416707"
            },
            "miss_distance": {
                "astronomical": "1.7753592896",
                "lunar": "690.6147636544",
                "kilometers": "265589968.208873152",
                "miles": "165029953.7043554176"
            },
            "orbiting_body": "Juptr"
        },
        {
            "close_approach_date": "2115-01-16",
            "close_approach_date_full": "2115-Jan-16 14:57",
            "epoch_date_close_approach": 4577093820000,
            "relative_velocity": {
                "kilometers_per_second": "6.9906508035",
                "kilometers_per_hour": "25166.3428924601",
                "miles_per_hour": "15637.3867822622"
            },
            "miss_distance": {
                "astronomical": "1.1390399929",
                "lunar": "443.0865572381",
                "kilometers": "170397956.782655123",
                "miles": "105880380.6062537774"
            },
            "orbiting_body": "Juptr"
        }
    ],
    "orbital_data": {
        "orbit_id": "9",
        "orbit_determination_date": "2017-04-06 08:36:54",
        "first_observation_date": "2014-12-13",
        "last_observation_date": "2014-12-27",
        "data_arc_in_days": 14,
        "observations_used": 18,
        "orbit_uncertainty": "8",
        "minimum_orbit_intersection": ".0304771",
        "jupiter_tisserand_invariant": "2.984",
        "epoch_osculation": "2457006.5",
        "eccentricity": ".6395096519090959",
        "semi_major_axis": "2.804047098605546",
        "inclination": "2.00099097581715",
        "ascending_node_longitude": "255.3654743241004",
        "orbital_period": "1715.048408941877",
        "perihelion_distance": "1.010831914639603",
        "perihelion_argument": "203.9379879105696",
        "aphelion_distance": "4.59726228257149",
        "perihelion_time": "2457020.254707874109",
        "mean_anomaly": "357.1127958786107",
        "mean_motion": ".2099066114536715",
        "equinox": "J2000",
        "orbit_class": {
            "orbit_class_type": "APO",
            "orbit_class_description": "Near-Earth asteroid orbits which cross the Earth’s orbit similar to that of 1862 Apollo",
            "orbit_class_range": "a (semi-major axis) > 1.0 AU; q (perihelion) < 1.017 AU"
        }
    },
    "is_sentry_object": false
}